{
"type": "FeatureCollection",
"name": "batas_desa",
"crs": { "type": "name", "properties": { "name": "urn:ogc:def:crs:OGC:1.3:CRS84" } },
"features": [
{"type":"Feature","properties":{"id":null},"geometry":{"type":"MultiLineString","coordinates":[[[128.021836450331364,1.703875571126262],[128.022045143572711,1.70320219244546],[128.022133014411224,1.702814267663811],[128.022173288545531,1.702580048889917],[128.022268481953887,1.701965224473047],[128.022264820668966,1.701844455368124],[128.022286788378608,1.701500446361132],[128.022297772233401,1.701339420847414],[128.022312417373143,1.701163756635302],[128.022323401227965,1.701017369779656],[128.022327062512915,1.700896600615387],[128.022290449663529,1.700779491115544],[128.022242852959323,1.700589188163139],[128.022195256255173,1.7004830576623],[128.022158643405788,1.700442801263903],[128.022156812763342,1.700269881724878],[128.02220898607365,1.700211326956829],[128.022249260207985,1.70017656006246],[128.022284957736133,1.70013813349427],[128.022388389035569,1.699910318824293],[128.022388389035569,1.699826146328987],[128.022399372890391,1.699712696438201],[128.022410356745212,1.699624864260112],[128.022417679315083,1.699526053054987],[128.022432324454826,1.69931013225582],[128.022428663169904,1.699160085584555],[128.022425001884983,1.699031996953521],[128.022406695460319,1.698914887340571],[128.022395711605498,1.698775819665972],[128.022388389035626,1.69866602938948],[128.022348114901263,1.698464747199708],[128.022208986073707,1.697644979519341],[128.021963679982946,1.696521458071315],[128.021897776854075,1.696261620770542],[128.009899746116531,1.696331154699521],[128.009533617622878,1.69607680689453],[128.008201825227104,1.696063083091153],[128.008118530994778,1.696609290390444],[128.006837996588104,1.696500414910931],[128.006781246671608,1.697570871040029],[128.006715343542709,1.698533366130396],[128.006684222620777,1.700004555417946],[128.006706190330419,1.700332096163985],[128.00673731125238,1.700465674217642],[128.006783077314083,1.700630359476549],[128.006817859520936,1.700758448001538],[128.006827012733311,1.700989007325091],[128.009486020918587,1.701468424242999],[128.010221023869605,1.701616640899613],[128.010426971147297,1.701655067438357],[128.010946873608304,1.701770347049997],[128.01108600243586,1.701825242100736],[128.011219639336076,1.701860008965396],[128.011353276236264,1.701907584673914],[128.011702928947699,1.702044822288066],[128.011918944758975,1.702119845513006],[128.012173404062054,1.702233295262249],[128.012279581325231,1.702268062119552],[128.012407726297965,1.702295509638032],[128.012521226131071,1.702322957156121],[128.012755548367011,1.702343085335805],[128.012872709484952,1.702363213515278],[128.013277281470465,1.702414448880263],[128.013504281136534,1.702438236727829],[128.013643409964146,1.702451045568704],[128.013793522646552,1.7024766632502],[128.013875901557611,1.702496791428278],[128.013967433681046,1.702524238943502],[128.014058965804452,1.702553516292643],[128.014168804352551,1.702584623475618],[128.014276812258146,1.702621220160829],[128.014599005332599,1.702712711870814],[128.014765593797222,1.702767606894721],[128.014912045194734,1.702829821253259],[128.015031036955151,1.702875567103843],[128.01515185935807,1.702926802455209],[128.015265359191091,1.702959739466082],[128.015325770392565,1.702967058801755],[128.015362383241921,1.702972548303492],[128.01575231008772,1.703084168168743],[128.015999446820956,1.70313906318207],[128.016160543358154,1.70319029852643],[128.016338115677598,1.703228725033806],[128.016435139728429,1.703250683037677],[128.016524841209389,1.703267151540415],[128.016634679757431,1.703270811207672],[128.01689280034546,1.703274470874921],[128.01716556607326,1.703265321706784],[128.017429178588714,1.703267151540415],[128.017668992752078,1.703261662039518],[128.017806290937159,1.703263491873152],[128.018657539684995,1.703309237713441],[128.018968748904626,1.703331195716395],[128.019236022704973,1.703349494051998],[128.019539909354705,1.703380601222124],[128.019719312316624,1.703406218891264],[128.021836450331364,1.703875571126262]]]}}
]
}
