{
"type": "FeatureCollection",
"name": "UMKM_Geojson",
"crs": { "type": "name", "properties": { "name": "urn:ogc:def:crs:OGC:1.3:CRS84" } },
"features": [
{"type":"Feature","properties":{"id":1,"Nama Usaha":"Kios Dian","Pemilik":"Dian","Foto":"images/1.jpg","Deskripsi":"Menjual Kebutuhan Sehari hari","Longitude":128.0196553,"Latitude":1.702184933},"geometry":{"type":"Point","coordinates":[128.01965532564148,1.702184933304662]}},
{"type":"Feature","properties":{"id":2,"Nama Usaha":"Warung Efi","Pemilik":"Efi","Foto":"images/2.jpg","Deskripsi":"Menjual Aneka Jajanan","Longitude":128.0169221,"Latitude":1.702280084},"geometry":{"type":"Point","coordinates":[128.016922176436196,1.702280084704493]}},
{"type":"Feature","properties":{"id":3,"Nama Usaha":"Warung Elisabeth","Pemilik":"Elisabeth","Foto":"images/3.jpg","Deskripsi":"Menjual Sembako dan Bensin","Longitude":128.0124233,"Latitude":1.69710988},"geometry":{"type":"Point","coordinates":[128.012423372570055,1.697109880209863]}},
{"type":"Feature","properties":{"id":4,"Nama Usaha":"Kios Epi Banggala","Pemilik":"Epi","Foto":"images/4.jpg","Deskripsi":"Menjual Sembako dan Jajanan","Longitude":128.0205614,"Latitude":1.702285574},"geometry":{"type":"Point","coordinates":[128.02056149366328,1.702285574208185]}},
{"type":"Feature","properties":{"id":5,"Nama Usaha":"Warung Eti","Pemilik":"Eti","Foto":"images/5.jpg","Deskripsi":"Menjual Singkong","Longitude":128.016242,"Latitude":1.701184013},"geometry":{"type":"Point","coordinates":[128.016242092759143,1.701184013487361]}},
{"type":"Feature","properties":{"id":6,"Nama Usaha":"Warung Femy Antoni","Pemilik":"Femy Antoni","Foto":"images/6.jpg","Deskripsi":"Menjual Aneka Jajanan","Longitude":128.0112737,"Latitude":1.696999174},"geometry":{"type":"Point","coordinates":[128.011273729099884,1.696999174918955]}},
{"type":"Feature","properties":{"id":7,"Nama Usaha":"Warung Fina","Pemilik":"Fina","Foto":"images/7.jpg","Deskripsi":"Menjual Aneka Jajanan","Longitude":128.0144206,"Latitude":1.701115394},"geometry":{"type":"Point","coordinates":[128.014420603503055,1.701115394650878]}},
{"type":"Feature","properties":{"id":8,"Nama Usaha":"Kios Dua Putra","Pemilik":"Gersonsius Kalam","Foto":"images/8.jpg","Deskripsi":"Menjual Sembako dan Jajanan","Longitude":128.0168114,"Latitude":1.70210625},"geometry":{"type":"Point","coordinates":[128.01681142256669,1.702106250412789]}},
{"type":"Feature","properties":{"id":9,"Nama Usaha":"Warung Ina","Pemilik":"Ina","Foto":"images/9.jpg","Deskripsi":"Menjual Kebutuhan Bumbu Dapur","Longitude":128.0203171,"Latitude":1.702094356},"geometry":{"type":"Point","coordinates":[128.020317102893728,1.702094356486994]}},
{"type":"Feature","properties":{"id":25,"Nama Usaha":"Warung Ishikamse","Pemilik":"Ishikamse","Foto":"images/10.jpg","Deskripsi":"Menjual Sembako dan Jajanan","Longitude":128.018934,"Latitude":1.702153826},"geometry":{"type":"Point","coordinates":[128.018934052508797,1.702153826115233]}},
{"type":"Feature","properties":{"id":10,"Nama Usaha":"Warung Kalfin","Pemilik":"Kalfin Bantara","Foto":"images/11.jpg","Deskripsi":"Menjual Sembako dan Jajanan","Longitude":128.0203143,"Latitude":1.702243488},"geometry":{"type":"Point","coordinates":[128.020314356929958,1.702243488012801]}},
{"type":"Feature","properties":{"id":11,"Nama Usaha":"Kios Ani","Pemilik":"Ani","Foto":"images/12.jpg","Deskripsi":"Menjual Sembako dan Jajanan","Longitude":128.0161523,"Latitude":1.701466723},"geometry":{"type":"Point","coordinates":[128.016152391278041,1.701466723067918]}},
{"type":"Feature","properties":{"id":12,"Nama Usaha":"Kios Dua Putri","Pemilik":null,"Foto":"images/13.jpg","Deskripsi":"Menjual Sembako dan Jajanan","Longitude":128.0146329,"Latitude":1.702652456},"geometry":{"type":"Point","coordinates":[128.014632958029239,1.702652456002906]}},
{"type":"Feature","properties":{"id":13,"Nama Usaha":"Kios Halim","Pemilik":"Halim","Foto":"images/14.jpg","Deskripsi":"Menjual Sembako dan Jajanan","Longitude":128.0110741,"Latitude":1.701768645},"geometry":{"type":"Point","coordinates":[128.011074189070655,1.701768645875186]}},
{"type":"Feature","properties":{"id":14,"Nama Usaha":"Kios Lakenda","Pemilik":"Lakenda","Foto":"images/15.jpg","Deskripsi":"Menjual Sembako dan Jajanan","Longitude":128.0171903,"Latitude":1.701958948},"geometry":{"type":"Point","coordinates":[128.017190365557468,1.701958948711239]}},
{"type":"Feature","properties":{"id":15,"Nama Usaha":"Kios Leni","Pemilik":"Leni","Foto":"images/16.jpg","Deskripsi":"Menjual Sembako dan Jajanan","Longitude":128.0144627,"Latitude":1.702598475},"geometry":{"type":"Point","coordinates":[128.014462708279524,1.702598475892851]}},
{"type":"Feature","properties":{"id":16,"Nama Usaha":"Kios Lita Ford","Pemilik":"Lita Ford Moloku","Foto":"images/17.jpg","Deskripsi":"Menjual Sembako dan Jajanan","Longitude":128.0170274,"Latitude":1.701584747},"geometry":{"type":"Point","coordinates":[128.01702743837771,1.701584747443659]}},
{"type":"Feature","properties":{"id":17,"Nama Usaha":"Warung Nike","Pemilik":"Nike","Foto":"images/18.jpg","Deskripsi":"Menjual Kebutuhan Bumbu Dapur","Longitude":128.0160196,"Latitude":1.701205971},"geometry":{"type":"Point","coordinates":[128.016019669698863,1.701205971514517]}},
{"type":"Feature","properties":{"id":18,"Nama Usaha":"Warung Nur Mila","Pemilik":"Nur Mila","Foto":"images/19.jpg","Deskripsi":"Menjual Sembako dan Jajanan","Longitude":128.0093524,"Latitude":1.701318506},"geometry":{"type":"Point","coordinates":[128.009352469829025,1.701318506399781]}},
{"type":"Feature","properties":{"id":19,"Nama Usaha":"Kios Nur Salma","Pemilik":"Nur Salma","Foto":"images/20.jpg","Deskripsi":"Menjual Sembako dan Jajanan","Longitude":128.0159098,"Latitude":1.702022992},"geometry":{"type":"Point","coordinates":[128.015909831150736,1.702022992930685]}},
{"type":"Feature","properties":{"id":20,"Nama Usaha":"Warung Prilly","Pemilik":"Prilly","Foto":"images/21.jpg","Deskripsi":"Menjual Es Buah","Longitude":128.0102979,"Latitude":1.701479531},"geometry":{"type":"Point","coordinates":[128.010297996663894,1.701479531915246]}},
{"type":"Feature","properties":{"id":21,"Nama Usaha":"Warung Rina","Pemilik":"Rina","Foto":"images/22.jpg","Deskripsi":"Menjual Sembako dan Jajanan","Longitude":128.018091,"Latitude":1.698728372},"geometry":{"type":"Point","coordinates":[128.018091041651672,1.698728372540657]}},
{"type":"Feature","properties":{"id":22,"Nama Usaha":"Warung Roni","Pemilik":"Roni","Foto":"images/23.jpg","Deskripsi":"Menjual Aneka Makanan dan Minuman","Longitude":128.0183574,"Latitude":1.702045865},"geometry":{"type":"Point","coordinates":[128.018357400130782,1.702045865865685]}},
{"type":"Feature","properties":{"id":23,"Nama Usaha":"Warung Sayidin","Pemilik":"Sayidin","Foto":"images/24.jpg","Deskripsi":"Menjual Sembako dan Jajanan","Longitude":128.0145203,"Latitude":1.701261781},"geometry":{"type":"Point","coordinates":[128.014520373517058,1.701261781499083]}},
{"type":"Feature","properties":{"id":24,"Nama Usaha":"Warung Stenly Koli","Pemilik":"Stenly Koli","Foto":"images/25.jpg","Deskripsi":"Menjual Ikan Kering","Longitude":128.0078513,"Latitude":1.700403588},"geometry":{"type":"Point","coordinates":[128.00785134300466,1.700403588443152]}},
{"type":"Feature","properties":{"id":26,"Nama Usaha":"Warung Bambang","Pemilik":"Bambang Akubat","Foto":"images/26.jpg","Deskripsi":"Menjual Ikan Kering","Longitude":128.0077424,"Latitude":1.700403588},"geometry":{"type":"Point","coordinates":[128.007742419777799,1.700403588443152]}},
{"type":"Feature","properties":{"id":27,"Nama Usaha":"Warung Dermawan Budo","Pemilik":"Dermawan Budo","Foto":"images/27.jpg","Deskripsi":"Menjual Sembako dan Jajanan","Longitude":128.0174201,"Latitude":1.701144672},"geometry":{"type":"Point","coordinates":[128.017420111186937,1.701144672021404]}}
]
}
